{
  "type": "FeatureCollection",
  "features": [
    {
      "type": "Feature",
      "properties": {
        "norad_id": 66877,
        "name": "ZQ-3 R/B",
        "group": "last-30-days",
        "lat": -23.196224675696364,
        "lon": -0.8713996638395238,
        "alt_km": 619.1831218812622,
        "timestamp": "2025-12-23T14:49:07.966673+00:00",
        "meta_object_name": "ZQ-3 R/B",
        "meta_object_id": "2025-282A",
        "meta_epoch": "2025-12-23T05:13:52.329792",
        "meta_mean_motion": 14.80837736,
        "meta_eccentricity": 0.06907331,
        "meta_inclination": 56.9487,
        "meta_ra_of_asc_node": 16.91,
        "meta_arg_of_pericenter": 238.425,
        "meta_mean_anomaly": 114.7574,
        "meta_ephemeris_type": 0,
        "meta_classification_type": "U",
        "meta_norad_cat_id": 66877,
        "meta_element_set_no": 999,
        "meta_rev_at_epoch": 293,
        "meta_bstar": 0.00018940219,
        "meta_mean_motion_dot": 0.01089449,
        "meta_mean_motion_ddot": 7.852659e-06,
        "tle_line1": "1 66877U 25282A   25357.21796678  .01089449  78527-5  18940-3 0  9995",
        "tle_line2": "2 66877  56.9487  16.9100 0690733 238.4250 114.7574 14.80837736  2934"
      },
      "geometry": {
        "type": "Point",
        "coordinates": [
          -0.8713996638395238,
          -23.196224675696364
        ]
      }
    },
    {
      "type": "Feature",
      "properties": {
        "norad_id": 66878,
        "name": "STARLINK-35866",
        "group": "last-30-days",
        "lat": -35.306434486388405,
        "lon": -128.46854391078264,
        "alt_km": 367.1311628795265,
        "timestamp": "2025-12-23T14:49:07.966691+00:00",
        "meta_object_name": "STARLINK-35866",
        "meta_object_id": "2025-283A",
        "meta_epoch": "2025-12-23T06:00:00.999648",
        "meta_mean_motion": 15.70411769,
        "meta_eccentricity": 0.00010984,
        "meta_inclination": 53.1591,
        "meta_ra_of_asc_node": 21.2712,
        "meta_arg_of_pericenter": 90.0715,
        "meta_mean_anomaly": 218.632,
        "meta_ephemeris_type": 0,
        "meta_classification_type": "U",
        "meta_norad_cat_id": 66878,
        "meta_element_set_no": 999,
        "meta_rev_at_epoch": 411,
        "meta_bstar": -0.018003487,
        "meta_mean_motion_dot": -0.0198336,
        "meta_mean_motion_ddot": 0,
        "tle_line1": "1 66878U 25283A   25357.25001157 -.01983360  00000+0 -18003-1 0  9992",
        "tle_line2": "2 66878  53.1591  21.2712 0001098  90.0715 218.6320 15.70411769  4115"
      },
      "geometry": {
        "type": "Point",
        "coordinates": [
          -128.46854391078264,
          -35.306434486388405
        ]
      }
    },
    {
      "type": "Feature",
      "properties": {
        "norad_id": 66879,
        "name": "STARLINK-35749",
        "group": "last-30-days",
        "lat": -37.84993760699254,
        "lon": -124.91364718118211,
        "alt_km": 367.2801198167699,
        "timestamp": "2025-12-23T14:49:07.966708+00:00",
        "meta_object_name": "STARLINK-35749",
        "meta_object_id": "2025-283B",
        "meta_epoch": "2025-12-23T06:00:00.999648",
        "meta_mean_motion": 15.70409343,
        "meta_eccentricity": 0.00010495,
        "meta_inclination": 53.159,
        "meta_ra_of_asc_node": 21.263,
        "meta_arg_of_pericenter": 89.4817,
        "meta_mean_anomaly": 223.0591,
        "meta_ephemeris_type": 0,
        "meta_classification_type": "U",
        "meta_norad_cat_id": 66879,
        "meta_element_set_no": 999,
        "meta_rev_at_epoch": 411,
        "meta_bstar": -0.018007171,
        "meta_mean_motion_dot": -0.01983501,
        "meta_mean_motion_ddot": 0,
        "tle_line1": "1 66879U 25283B   25357.25001157 -.01983501  00000+0 -18007-1 0  9994",
        "tle_line2": "2 66879  53.1590  21.2630 0001049  89.4817 223.0591 15.70409343  4110"
      },
      "geometry": {
        "type": "Point",
        "coordinates": [
          -124.91364718118211,
          -37.84993760699254
        ]
      }
    },
    {
      "type": "Feature",
      "properties": {
        "norad_id": 66880,
        "name": "STARLINK-35844",
        "group": "last-30-days",
        "lat": -36.59244776295926,
        "lon": -126.71904973912609,
        "alt_km": 367.19692183139705,
        "timestamp": "2025-12-23T14:49:07.966729+00:00",
        "meta_object_name": "STARLINK-35844",
        "meta_object_id": "2025-283C",
        "meta_epoch": "2025-12-23T06:00:00.999648",
        "meta_mean_motion": 15.70410077,
        "meta_eccentricity": 0.00011237,
        "meta_inclination": 53.1592,
        "meta_ra_of_asc_node": 21.2673,
        "meta_arg_of_pericenter": 94.6038,
        "meta_mean_anomaly": 216.0184,
        "meta_ephemeris_type": 0,
        "meta_classification_type": "U",
        "meta_norad_cat_id": 66880,
        "meta_element_set_no": 999,
        "meta_rev_at_epoch": 411,
        "meta_bstar": -0.017986957,
        "meta_mean_motion_dot": -0.01981649,
        "meta_mean_motion_ddot": 0,
        "tle_line1": "1 66880U 25283C   25357.25001157 -.01981649  00000+0 -17987-1 0  9993",
        "tle_line2": "2 66880  53.1592  21.2673 0001123  94.6038 216.0184 15.70410077  4113"
      },
      "geometry": {
        "type": "Point",
        "coordinates": [
          -126.71904973912609,
          -36.59244776295926
        ]
      }
    },
    {
      "type": "Feature",
      "properties": {
        "norad_id": 66881,
        "name": "STARLINK-35860",
        "group": "last-30-days",
        "lat": -39.07884862646682,
        "lon": -123.04595269563062,
        "alt_km": 367.3691952469053,
        "timestamp": "2025-12-23T14:49:07.966749+00:00",
        "meta_object_name": "STARLINK-35860",
        "meta_object_id": "2025-283D",
        "meta_epoch": "2025-12-23T06:00:00.999648",
        "meta_mean_motion": 15.70408171,
        "meta_eccentricity": 0.00010419,
        "meta_inclination": 53.1588,
        "meta_ra_of_asc_node": 21.2588,
        "meta_arg_of_pericenter": 85.4444,
        "meta_mean_anomaly": 229.0127,
        "meta_ephemeris_type": 0,
        "meta_classification_type": "U",
        "meta_norad_cat_id": 66881,
        "meta_element_set_no": 999,
        "meta_rev_at_epoch": 411,
        "meta_bstar": -0.017985314,
        "meta_mean_motion_dot": -0.01981286,
        "meta_mean_motion_ddot": 0,
        "tle_line1": "1 66881U 25283D   25357.25001157 -.01981286  00000+0 -17985-1 0  9999",
        "tle_line2": "2 66881  53.1588  21.2588 0001041  85.4444 229.0127 15.70408171  4115"
      },
      "geometry": {
        "type": "Point",
        "coordinates": [
          -123.04595269563062,
          -39.07884862646682
        ]
      }
    },
    {
      "type": "Feature",
      "properties": {
        "norad_id": 66882,
        "name": "STARLINK-35912",
        "group": "last-30-days",
        "lat": -40.278078414260115,
        "lon": -121.1104440063834,
        "alt_km": 367.50348073407895,
        "timestamp": "2025-12-23T14:49:07.966766+00:00",
        "meta_object_name": "STARLINK-35912",
        "meta_object_id": "2025-283E",
        "meta_epoch": "2025-12-23T06:00:00.999648",
        "meta_mean_motion": 15.70413307,
        "meta_eccentricity": 0.00011711,
        "meta_inclination": 53.159,
        "meta_ra_of_asc_node": 21.2554,
        "meta_arg_of_pericenter": 86.2318,
        "meta_mean_anomaly": 230.1372,
        "meta_ephemeris_type": 0,
        "meta_classification_type": "U",
        "meta_norad_cat_id": 66882,
        "meta_element_set_no": 999,
        "meta_rev_at_epoch": 411,
        "meta_bstar": -0.01801789,
        "meta_mean_motion_dot": -0.0198493,
        "meta_mean_motion_ddot": 0,
        "tle_line1": "1 66882U 25283E   25357.25001157 -.01984930  00000+0 -18018-1 0  9997",
        "tle_line2": "2 66882  53.1590  21.2554 0001171  86.2318 230.1372 15.70413307  4117"
      },
      "geometry": {
        "type": "Point",
        "coordinates": [
          -121.1104440063834,
          -40.278078414260115
        ]
      }
    },
    {
      "type": "Feature",
      "properties": {
        "norad_id": 66883,
        "name": "STARLINK-35947",
        "group": "last-30-days",
        "lat": -41.44390920803028,
        "lon": -119.10552164129435,
        "alt_km": 367.4902952358152,
        "timestamp": "2025-12-23T14:49:07.966786+00:00",
        "meta_object_name": "STARLINK-35947",
        "meta_object_id": "2025-283F",
        "meta_epoch": "2025-12-23T06:00:00.999648",
        "meta_mean_motion": 15.70408854,
        "meta_eccentricity": 0.00010727,
        "meta_inclination": 53.1591,
        "meta_ra_of_asc_node": 21.252,
        "meta_arg_of_pericenter": 90.2612,
        "meta_mean_anomaly": 228.0294,
        "meta_ephemeris_type": 0,
        "meta_classification_type": "U",
        "meta_norad_cat_id": 66883,
        "meta_element_set_no": 999,
        "meta_rev_at_epoch": 416,
        "meta_bstar": -0.017980954,
        "meta_mean_motion_dot": -0.01980936,
        "meta_mean_motion_ddot": 0,
        "tle_line1": "1 66883U 25283F   25357.25001157 -.01980936  00000+0 -17981-1 0  9998",
        "tle_line2": "2 66883  53.1591  21.2520 0001072  90.2612 228.0294 15.70408854  4169"
      },
      "geometry": {
        "type": "Point",
        "coordinates": [
          -119.10552164129435,
          -41.44390920803028
        ]
      }
    }
  ]
}